$$SOE
2461288.500000000, A.D. 2026-Sep-05 00:00:00.0000, 2.243456237773412E+08, -6.940740635427937E+06, 6.224660144258361E+07,
2461295.500000000, A.D. 2026-Sep-12 00:00:00.0000, 2.216894207010339E+08, 8.767878184162099E+06, 6.695309164761852E+07,
2461302.500000000, A.D. 2026-Sep-19 00:00:00.0000, 2.181690937464620E+08, 2.444216205720707E+07, 7.139854763403207E+07,
2461309.500000000, A.D. 2026-Sep-26 00:00:00.0000, 2.137884780089801E+08, 4.001994144752566E+07, 7.556241775442594E+07,
2461316.500000000, A.D. 2026-Oct-03 00:00:00.0000, 2.085582566687568E+08, 5.543859449745258E+07, 7.942596671656750E+07,
2461323.500000000, A.D. 2026-Oct-10 00:00:00.0000, 2.024959540719364E+08, 7.063602179132015E+07, 8.297261322744736E+07,
2461330.500000000, A.D. 2026-Oct-17 00:00:00.0000, 1.956257403187754E+08, 8.555162955242990E+07, 8.618821626455829E+07,
2461337.500000000, A.D. 2026-Oct-24 00:00:00.0000, 1.879780522614715E+08, 1.001272791216407E+08, 8.906129668516769E+07,
2461344.500000000, A.D. 2026-Oct-31 00:00:00.0000, 1.795890471977674E+08, 1.143081621249109E+08, 9.158318469041109E+07,
2461351.500000000, A.D. 2026-Nov-07 00:00:00.0000, 1.704999157596036E+08, 1.280435658348060E+08, 9.374808826181208E+07,
2461358.500000000, A.D. 2026-Nov-14 00:00:00.0000, 1.607560879512774E+08, 1.412875017600250E+08, 9.555308265762137E+07,
2461365.500000000, A.D. 2026-Nov-21 00:00:00.0000, 1.504063687727220E+08, 1.539991798598229E+08, 9.699802585395899E+07,
2461372.500000000, A.D. 2026-Nov-28 00:00:00.0000, 1.395020418694978E+08, 1.661433174397020E+08, 9.808540841053575E+07,
2461379.500000000, A.D. 2026-Dec-05 00:00:00.0000, 1.280959823695982E+08, 1.776902840846646E+08, 9.882014893308736E+07,
2461386.500000000, A.D. 2026-Dec-12 00:00:00.0000, 1.162418120662581E+08, 1.886160964088672E+08, 9.920934859830053E+07,
2461393.500000000, A.D. 2026-Dec-19 00:00:00.0000, 1.039931217151376E+08, 1.989022800557845E+08, 9.926201866123886E+07,
2461400.500000000, A.D. 2026-Dec-26 00:00:00.0000, 9.140277972037886E+07, 2.085356200092496E+08, 9.898879411846809E+07,
2461407.500000000, A.D. 2027-Jan-02 00:00:00.0000, 7.852233954683441E+07, 2.175078231926138E+08, 9.840164537770334E+07,
2461414.500000000, A.D. 2027-Jan-09 00:00:00.0000, 6.540155122299432E+07, 2.258151177759144E+08, 9.751359793388012E+07,
2461421.500000000, A.D. 2027-Jan-16 00:00:00.0000, 5.208797640163787E+07, 2.334578122265577E+08, 9.633846790436724E+07,
2461428.500000000, A.D. 2027-Jan-23 00:00:00.0000, 3.862670188185658E+07, 2.404398345830966E+08, 9.489061907990101E+07,
2461435.500000000, A.D. 2027-Jan-30 00:00:00.0000, 2.506014336546471E+07, 2.467682692444805E+08, 9.318474508420391E+07,
2461442.500000000, A.D. 2027-Feb-06 00:00:00.0000, 1.142792940810755E+07, 2.524529055095429E+08, 9.123567845572245E+07,
2461449.500000000, A.D. 2027-Feb-13 00:00:00.0000, -2.233146349425717E+06, 2.575058095882805E+08, 8.905822715182163E+07,
2461456.500000000, A.D. 2027-Feb-20 00:00:00.0000, -1.588911862430649E+07, 2.619409266577761E+08, 8.666703784540701E+07,
2461463.500000000, A.D. 2027-Feb-27 00:00:00.0000, -2.950879934484261E+07, 2.657737143624452E+08, 8.407648401592904E+07,
2461470.500000000, A.D. 2027-Mar-06 00:00:00.0000, -4.306368914611469E+07, 2.690208120622209E+08, 8.130057660118748E+07,
2461477.500000000, A.D. 2027-Mar-13 00:00:00.0000, -5.652786218907923E+07, 2.716997484767092E+08, 7.835289511567205E+07,
2461484.500000000, A.D. 2027-Mar-20 00:00:00.0000, -6.987783326459353E+07, 2.738286861146550E+08, 7.524653673770283E+07,
2461491.500000000, A.D. 2027-Mar-27 00:00:00.0000, -8.309241356272756E+07, 2.754262002009168E+08, 7.199408079872966E+07,
2461498.500000000, A.D. 2027-Apr-03 00:00:00.0000, -9.615256029065084E+07, 2.765110896815867E+08, 6.860756627448669E+07,
2461505.500000000, A.D. 2027-Apr-10 00:00:00.0000, -1.090412243730695E+08, 2.771022175855726E+08, 6.509848008057635E+07,
2461512.500000000, A.D. 2027-Apr-17 00:00:00.0000, -1.217431995464983E+08, 2.772183778132864E+08, 6.147775419325022E+07,
2461519.500000000, A.D. 2027-Apr-24 00:00:00.0000, -1.342449752758454E+08, 2.768781853562150E+08, 5.775576983827472E+07,
2461526.500000000, A.D. 2027-May-01 00:00:00.0000, -1.465345950091471E+08, 2.760999871293046E+08, 5.394236720826443E+07,
2461533.500000000, A.D. 2027-May-08 00:00:00.0000, -1.586015207115187E+08, 2.749017914790896E+08, 5.004685944697653E+07,
2461540.500000000, A.D. 2027-May-15 00:00:00.0000, -1.704365059689272E+08, 2.733012148437135E+08, 4.607805002502118E+07,
2461547.500000000, A.D. 2027-May-22 00:00:00.0000, -1.820314796529877E+08, 2.713154407256088E+08, 4.204425252963275E+07,
2461554.500000000, A.D. 2027-May-29 00:00:00.0000, -1.933794369332576E+08, 2.689611874795535E+08, 3.795331169042528E+07,
2461561.500000000, A.D. 2027-Jun-05 00:00:00.0000, -2.044743367007553E+08, 2.662546862497494E+08, 3.381262520949808E+07,
2461568.500000000, A.D. 2027-Jun-12 00:00:00.0000, -2.153110072060345E+08, 2.632116679259592E+08, 2.962916613107470E+07,
2461575.500000000, A.D. 2027-Jun-19 00:00:00.0000, -2.258850599208858E+08, 2.598473568204322E+08, 2.540950532011105E+07,
2461582.500000000, A.D. 2027-Jun-26 00:00:00.0000, -2.361928109514415E+08, 2.561764696218319E+08, 2.115983370394886E+07,
2461589.500000000, A.D. 2027-Jul-03 00:00:00.0000, -2.462312094358706E+08, 2.522132186207260E+08, 1.688598403837933E+07,
2461596.500000000, A.D. 2027-Jul-10 00:00:00.0000, -2.559977724329673E+08, 2.479713183520994E+08, 1.259345202694486E+07,
2461603.500000000, A.D. 2027-Jul-17 00:00:00.0000, -2.654905258018910E+08, 2.434639948849224E+08, 8.287416666109934E+06,
2461610.500000000, A.D. 2027-Jul-24 00:00:00.0000, -2.747079504581974E+08, 2.387039970803661E+08, 3.972759714298546E+06,
2461617.500000000, A.D. 2027-Jul-31 00:00:00.0000, -2.836489331489483E+08, 2.337036095386800E+08, -3.459157856363803E+05,
2461624.500000000, A.D. 2027-Aug-07 00:00:00.0000, -2.923127215199452E+08, 2.284746679568044E+08, -4.664267845719934E+06,
2461631.500000000, A.D. 2027-Aug-14 00:00:00.0000, -3.006988853711285E+08, 2.230285762879051E+08, -8.978198552356631E+06,
2461638.500000000, A.D. 2027-Aug-21 00:00:00.0000, -3.088072830979745E+08, 2.173763220454156E+08, -1.328383809111735E+07,
2461645.500000000, A.D. 2027-Aug-28 00:00:00.0000, -3.166380295262161E+08, 2.115284907061040E+08, -1.757752997334758E+07,
2461652.500000000, A.D. 2027-Sep-04 00:00:00.0000, -3.241914659983232E+08, 2.054952815083598E+08, -2.185581712354994E+07,
2461659.500000000, A.D. 2027-Sep-11 00:00:00.0000, -3.314681338192647E+08, 1.992865238281268E+08, -2.611542872199721E+07,
2461666.500000000, A.D. 2027-Sep-18 00:00:00.0000, -3.384687506601406E+08, 1.929116933640170E+08, -3.035326783361368E+07,
2461673.500000000, A.D. 2027-Sep-25 00:00:00.0000, -3.451941894405594E+08, 1.863799279612253E+08, -3.456639981362329E+07,
2461680.500000000, A.D. 2027-Oct-02 00:00:00.0000, -3.516454593841168E+08, 1.797000430289839E+08, -3.875204145590825E+07,
2461687.500000000, A.D. 2027-Oct-09 00:00:00.0000, -3.578236890140498E+08, 1.728805464907897E+08, -4.290755084674530E+07,
2461694.500000000, A.D. 2027-Oct-16 00:00:00.0000, -3.637301108351235E+08, 1.659296531705217E+08, -4.703041789421176E+07,
2461701.500000000, A.D. 2027-Oct-23 00:00:00.0000, -3.693660472694507E+08, 1.588552985790571E+08, -5.111825551806118E+07,
2461708.500000000, A.D. 2027-Oct-30 00:00:00.0000, -3.747328973158291E+08, 1.516651526922059E+08, -5.516879144600122E+07,
2461715.500000000, A.D. 2027-Nov-06 00:00:00.0000, -3.798321249562745E+08, 1.443666348367887E+08, -5.917986038041306E+07,
2461722.500000000, A.D. 2027-Nov-13 00:00:00.0000, -3.846652511711873E+08, 1.369669276053183E+08, -6.314939648837287E+07,
2461729.500000000, A.D. 2027-Nov-20 00:00:00.0000, -3.892338465481365E+08, 1.294729876177763E+08, -6.707542662658652E+07,
2461736.500000000, A.D. 2027-Nov-27 00:00:00.0000, -3.935395227605197E+08, 1.218915561013674E+08, -7.095606417412530E+07,
2461743.500000000, A.D. 2027-Dec-04 00:00:00.0000, -3.975839248464655E+08, 1.142291702092556E+08, -7.478950318170094E+07,
2461750.500000000, A.D. 2027-Dec-11 00:00:00.0000, -4.013687247578300E+08, 1.064921741263343E+08, -7.857401283804330E+07,
2461757.500000000, A.D. 2027-Dec-18 00:00:00.0000, -4.048956158304421E+08, 9.868672963850993E+07, -8.230793228007613E+07,
2461764.500000000, A.D. 2027-Dec-25 00:00:00.0000, -4.081663079559141E+08, 9.081882617971316E+07, -8.598966573587975E+07,
2461771.500000000, A.D. 2028-Jan-01 00:00:00.0000, -4.111825233526857E+08, 8.289429038802160E+07, -8.961767797945186E+07,
$$EOE